E-SPACE_L_00007011-61
1 13660U 22047AK  26075.69998843  .00000000  00000+0  00000-0 0  9996
2 13660  39.0000 100.0000 0000000   0.0000  61.1111 14.99027416    16
E-SPACE_L_00007011-62
1 13661U 24752H   26075.69998843  .00000000  00000+0  00000-0 0  9992
2 13661  39.0000 100.0000 0000000   0.0000  62.1111 14.99027416    18
E-SPACE_L_00007011-63
1 13662U 25603QI  26075.69998843  .00000000  00000+0  00000-0 0  9999
2 13662  39.0000 100.0000 0000000   0.0000  63.1111 14.99027416    10
E-SPACE_L_00007011-64
1 13663U 24835LW  26075.69998843  .00000000  00000+0  00000-0 0  9996
2 13663  39.0000 100.0000 0000000   0.0000  64.1111 14.99027416    12
E-SPACE_L_00007011-65
1 13664U 23063TS  26075.69998843  .00000000  00000+0  00000-0 0  9999
2 13664  39.0000 100.0000 0000000   0.0000  65.1111 14.99027416    14
E-SPACE_L_00007011-66
1 13665U 23119YG  26075.69998843  .00000000  00000+0  00000-0 0  9992
2 13665  39.0000 100.0000 0000000   0.0000  66.1111 14.99027416    16
E-SPACE_L_00007011-67
1 13666U 25924AJ  26075.69998843  .00000000  00000+0  00000-0 0  9999
2 13666  39.0000 100.0000 0000000   0.0000  67.1111 14.99027416    18
E-SPACE_L_00007011-68
1 13667U 22431FS  26075.69998843  .00000000  00000+0  00000-0 0  9990
2 13667  39.0000 100.0000 0000000   0.0000  68.1111 14.99027416    10
E-SPACE_L_00007011-69
1 13668U 25739YD  26075.69998843  .00000000  00000+0  00000-0 0  9995
2 13668  39.0000 100.0000 0000000   0.0000  69.1111 14.99027416    12
E-SPACE_L_00007011-70
1 13669U 23869BR  26075.69998843  .00000000  00000+0  00000-0 0  9998
2 13669  39.0000 100.0000 0000000   0.0000  70.1111 14.99027416    15
E-SPACE_L_00007011-71
1 13670U 23686SW  26075.69998843  .00000000  00000+0  00000-0 0  9997
2 13670  39.0000 100.0000 0000000   0.0000  71.1111 14.99027416    18
E-SPACE_L_00007011-72
1 13671U 26123QV  26075.69998843  .00000000  00000+0  00000-0 0  9997
2 13671  39.0000 100.0000 0000000   0.0000  72.1111 14.99027416    10
E-SPACE_L_00007011-73
1 13672U 25150JQ  26075.69998843  .00000000  00000+0  00000-0 0  9997
2 13672  39.0000 100.0000 0000000   0.0000  73.1111 14.99027416    12
E-SPACE_L_00007011-74
1 13673U 25770UU  26075.69998843  .00000000  00000+0  00000-0 0  9996
2 13673  39.0000 100.0000 0000000   0.0000  74.1111 14.99027416    14
E-SPACE_L_00007011-75
1 13674U 24895FJ  26075.69998843  .00000000  00000+0  00000-0 0  9994
2 13674  39.0000 100.0000 0000000   0.0000  75.1111 14.99027416    16
E-SPACE_L_00007011-76
1 13675U 25552XR  26075.69998843  .00000000  00000+0  00000-0 0  9996
2 13675  39.0000 100.0000 0000000   0.0000  76.1111 14.99027416    18
E-SPACE_L_00007011-77
1 13676U 22758RC  26075.69998843  .00000000  00000+0  00000-0 0  9992
2 13676  39.0000 100.0000 0000000   0.0000  77.1111 14.99027416    10
E-SPACE_L_00007011-78
1 13677U 25087KQ  26075.69998843  .00000000  00000+0  00000-0 0  9991
2 13677  39.0000 100.0000 0000000   0.0000  78.1111 14.99027416    12
E-SPACE_L_00007011-79
1 13678U 22965ZJ  26075.69998843  .00000000  00000+0  00000-0 0  9994
2 13678  39.0000 100.0000 0000000   0.0000  79.1111 14.99027416    14
E-SPACE_L_00007011-80
1 13679U 24621IZ  26075.69998843  .00000000  00000+0  00000-0 0  9996
2 13679  39.0000 100.0000 0000000   0.0000  80.1111 14.99027416    17
E-SPACE_L_00007011-81
1 13680U 22024DJ  26075.69998843  .00000000  00000+0  00000-0 0  9993
2 13680  39.0000 100.0000 0000000   0.0000  81.1111 14.99027416    10
E-SPACE_L_00007011-82
1 13681U 23556RL  26075.69998843  .00000000  00000+0  00000-0 0  9995
2 13681  39.0000 100.0000 0000000   0.0000  82.1111 14.99027416    12
E-SPACE_L_00007011-83
1 13682U 26875HM  26075.69998843  .00000000  00000+0  00000-0 0  9993
2 13682  39.0000 100.0000 0000000   0.0000  83.1111 14.99027416    14
E-SPACE_L_00007011-84
1 13683U 25826CC  26075.69998843  .00000000  00000+0  00000-0 0  9999
2 13683  39.0000 100.0000 0000000   0.0000  84.1111 14.99027416    16
E-SPACE_L_00007011-85
1 13684U 22130IO  26075.69998843  .00000000  00000+0  00000-0 0  9995
2 13684  39.0000 100.0000 0000000   0.0000  85.1111 14.99027416    18
E-SPACE_L_00007011-86
1 13685U 22205GP  26075.69998843  .00000000  00000+0  00000-0 0  9999
2 13685  39.0000 100.0000 0000000   0.0000  86.1111 14.99027416    10
E-SPACE_L_00007011-87
1 13686U 22192CG  26075.69998843  .00000000  00000+0  00000-0 0  9995
2 13686  39.0000 100.0000 0000000   0.0000  87.1111 14.99027416    12
E-SPACE_L_00007011-88
1 13687U 22652EF  26075.69998843  .00000000  00000+0  00000-0 0  9997
2 13687  39.0000 100.0000 0000000   0.0000  88.1111 14.99027416    14
E-SPACE_L_00007011-89
1 13688U 23917ZF  26075.69998843  .00000000  00000+0  00000-0 0  9993
2 13688  39.0000 100.0000 0000000   0.0000  89.1111 14.99027416    16
E-SPACE_L_00007011-90
1 13689U 26422MD  26075.69998843  .00000000  00000+0  00000-0 0  9998
2 13689  39.0000 100.0000 0000000   0.0000  90.1111 14.99027416    19
E-SPACE_L_00007011-91
1 13690U 25332HK  26075.69998843  .00000000  00000+0  00000-0 0  9999
2 13690  39.0000 100.0000 0000000   0.0000  91.1111 14.99027416    12
E-SPACE_L_00007011-92
1 13691U 26982LT  26075.69998843  .00000000  00000+0  00000-0 0  9992
2 13691  39.0000 100.0000 0000000   0.0000  92.1111 14.99027416    14
E-SPACE_L_00007011-93
1 13692U 22971W   26075.69998843  .00000000  00000+0  00000-0 0  9997
2 13692  39.0000 100.0000 0000000   0.0000  93.1111 14.99027416    16
E-SPACE_L_00007011-94
1 13693U 23349XQ  26075.69998843  .00000000  00000+0  00000-0 0  9998
2 13693  39.0000 100.0000 0000000   0.0000  94.1111 14.99027416    18
E-SPACE_L_00007011-95
1 13694U 24239ZS  26075.69998843  .00000000  00000+0  00000-0 0  9998
2 13694  39.0000 100.0000 0000000   0.0000  95.1111 14.99027416    10
E-SPACE_L_00007011-96
1 13695U 25856BX  26075.69998843  .00000000  00000+0  00000-0 0  9995
2 13695  39.0000 100.0000 0000000   0.0000  96.1111 14.99027416    12
E-SPACE_L_00007011-97
1 13696U 26356BL  26075.69998843  .00000000  00000+0  00000-0 0  9992
2 13696  39.0000 100.0000 0000000   0.0000  97.1111 14.99027416    14
E-SPACE_L_00007011-98
1 13697U 23955EQ  26075.69998843  .00000000  00000+0  00000-0 0  9995
2 13697  39.0000 100.0000 0000000   0.0000  98.1111 14.99027416    16
E-SPACE_L_00007011-99
1 13698U 26834RT  26075.69998843  .00000000  00000+0  00000-0 0  9995
2 13698  39.0000 100.0000 0000000   0.0000  99.1111 14.99027416    18
E-SPACE_L_00007011-100
1 13699U 24426IO  26075.69998843  .00000000  00000+0  00000-0 0  9991
2 13699  39.0000 100.0000 0000000   0.0000 100.1111 14.99027416    12
E-SPACE_L_00007011-101
1 13700U 25377IY  26075.69998843  .00000000  00000+0  00000-0 0  9990
2 13700  39.0000 100.0000 0000000   0.0000 101.1111 14.99027416    16
E-SPACE_L_00007011-102
1 13701U 23942KT  26075.69998843  .00000000  00000+0  00000-0 0  9997
2 13701  39.0000 100.0000 0000000   0.0000 102.1111 14.99027416    18
E-SPACE_L_00007011-103
1 13702U 23866K   26075.69998843  .00000000  00000+0  00000-0 0  9993
2 13702  39.0000 100.0000 0000000   0.0000 103.1111 14.99027416    10
E-SPACE_L_00007011-104
1 13703U 22835TB  26075.69998843  .00000000  00000+0  00000-0 0  9999
2 13703  39.0000 100.0000 0000000   0.0000 104.1111 14.99027416    12
E-SPACE_L_00007011-105
1 13704U 22771IA  26075.69998843  .00000000  00000+0  00000-0 0  9999
2 13704  39.0000 100.0000 0000000   0.0000 105.1111 14.99027416    14
E-SPACE_L_00007011-106
1 13705U 26705WP  26075.69998843  .00000000  00000+0  00000-0 0  9991
2 13705  39.0000 100.0000 0000000   0.0000 106.1111 14.99027416    16
E-SPACE_L_00007011-107
1 13706U 23080QO  26075.69998843  .00000000  00000+0  00000-0 0  9995
2 13706  39.0000 100.0000 0000000   0.0000 107.1111 14.99027416    18
E-SPACE_L_00007011-108
1 13707U 26238PM  26075.69998843  .00000000  00000+0  00000-0 0  9994
2 13707  39.0000 100.0000 0000000   0.0000 108.1111 14.99027416    10
E-SPACE_L_00007011-109
1 13708U 24989TE  26075.69998843  .00000000  00000+0  00000-0 0  9996
2 13708  39.0000 100.0000 0000000   0.0000 109.1111 14.99027416    12
E-SPACE_L_00007011-110
1 13709U 26278SZ  26075.69998843  .00000000  00000+0  00000-0 0  9990
2 13709  39.0000 100.0000 0000000   0.0000 110.1111 14.99027416    15
E-SPACE_L_00007011-111
1 13710U 22658DT  26075.69998843  .00000000  00000+0  00000-0 0  9990
2 13710  39.0000 100.0000 0000000   0.0000 111.1111 14.99027416    18
E-SPACE_L_00007011-112
1 13711U 26873JG  26075.69998843  .00000000  00000+0  00000-0 0  9994
2 13711  39.0000 100.0000 0000000   0.0000 112.1111 14.99027416    10
E-SPACE_L_00007011-113
1 13712U 23621MT  26075.69998843  .00000000  00000+0  00000-0 0  9993
2 13712  39.0000 100.0000 0000000   0.0000 113.1111 14.99027416    12
E-SPACE_L_00007011-114
1 13713U 25541UV  26075.69998843  .00000000  00000+0  00000-0 0  9997
2 13713  39.0000 100.0000 0000000   0.0000 114.1111 14.99027416    14
E-SPACE_L_00007011-115
1 13714U 23459DI  26075.69998843  .00000000  00000+0  00000-0 0  9994
2 13714  39.0000 100.0000 0000000   0.0000 115.1111 14.99027416    16
E-SPACE_L_00007011-116
1 13715U 23672JK  26075.69998843  .00000000  00000+0  00000-0 0  9992
2 13715  39.0000 100.0000 0000000   0.0000 116.1111 14.99027416    18
E-SPACE_L_00007011-117
1 13716U 23001LA  26075.69998843  .00000000  00000+0  00000-0 0  9999
2 13716  39.0000 100.0000 0000000   0.0000 117.1111 14.99027416    10
E-SPACE_L_00007011-118
1 13717U 23889RL  26075.69998843  .00000000  00000+0  00000-0 0  9994
2 13717  39.0000 100.0000 0000000   0.0000 118.1111 14.99027416    12
E-SPACE_L_00007011-119
1 13718U 25894CD  26075.69998843  .00000000  00000+0  00000-0 0  9993
2 13718  39.0000 100.0000 0000000   0.0000 119.1111 14.99027416    14
E-SPACE_L_00007011-120
1 13719U 24528WH  26075.69998843  .00000000  00000+0  00000-0 0  9997
2 13719  39.0000 100.0000 0000000   0.0000 120.1111 14.99027416    17
E-SPACE_L_00007011-121
1 13720U 25777MZ  26075.69998843  .00000000  00000+0  00000-0 0  9996
2 13720  39.0000 100.0000 0000000   0.0000 121.1111 14.99027416    10
